GAOFEN 1                
1 39150U 13018A   17346.48093059 -.00001582  00000-0 -21925-3 0  9990
2 39150  97.9414  67.3938 0018137 199.1042 160.9522 14.76495594249550
